FORMOSAT 7-3            
1 44343U 19036E   26068.82630502  .00006445  00000+0  37650-3 0  9997
2 44343  23.9981 141.9797 0001061 150.4425 209.6139 15.08933962368215
STARLINK-4016           
1 52603U 22052F   26068.84812610 -.00000506  00000+0 -13736-4 0  9995
2 52603  53.2166 278.4217 0001248  92.9844 267.1291 15.08838271211682
